{"type": "FeatureCollection", "features": [ {"type": "Feature", "properties": {"norad_id": 66920, "name": "HULIANWANG DIGUI-110", "group": "last-30-days", "lat": 6.343536636250719, "lon": -127.80854547713227, "alt_km": 886.9270308788991, "timestamp": "2025-12-27T09:28:55.185227+00:00", "meta": {"OBJECT_NAME": "HULIANWANG DIGUI-110", "OBJECT_ID": "2025-285F", "EPOCH": "2025-12-27T05:14:51.521568", "MEAN_MOTION": 14.02751895, "ECCENTRICITY": 0.0004206, "INCLINATION": 50.0093, "RA_OF_ASC_NODE": 58.263, "ARG_OF_PERICENTER": 338.6901, "MEAN_ANOMALY": 21.3827, "EPHEMERIS_TYPE": 0, "CLASSIFICATION_TYPE": "U", "NORAD_CAT_ID": 66920, "ELEMENT_SET_NO": 999, "REV_AT_EPOCH": 294, "BSTAR": 0.00011948, "MEAN_MOTION_DOT": 3.5e-07, "MEAN_MOTION_DDOT": 0}, "tle": {"line1": "1 66920U 25285F   25361.21865187  .00000035  00000+0  11948-3 0  9993", "line2": "2 66920  50.0093  58.2630 0004206 338.6901  21.3827 14.02751895  2948"}}, "geometry": {"type": "Point", "coordinates": [-127.80854547713227, 6.343536636250719]}}, {"type": "Feature", "properties": {"norad_id": 66921, "name": "HULIANWANG DIGUI-111", "group": "last-30-days", "lat": 3.01041553752742, "lon": -124.99481290093291, "alt_km": 887.35000376273, "timestamp": "2025-12-27T09:28:55.185239+00:00", "meta": {"OBJECT_NAME": "HULIANWANG DIGUI-111", "OBJECT_ID": "2025-285G", "EPOCH": "2025-12-27T05:13:39.093312", "MEAN_MOTION": 14.02951958, "ECCENTRICITY": 0.0005129, "INCLINATION": 50.0134, "RA_OF_ASC_NODE": 58.2558, "ARG_OF_PERICENTER": 342.7757, "MEAN_ANOMALY": 17.2972, "EPHEMERIS_TYPE": 0, "CLASSIFICATION_TYPE": "U", "NORAD_CAT_ID": 66921, "ELEMENT_SET_NO": 999, "REV_AT_EPOCH": 294, "BSTAR": 1.6104e-05, "MEAN_MOTION_DOT": -1.26e-06, "MEAN_MOTION_DDOT": 0}, "tle": {"line1": "1 66921U 25285G   25361.21781358 -.00000126  00000+0  16104-4 0  9993", "line2": "2 66921  50.0134  58.2558 0005129 342.7757  17.2972 14.02951958  2941"}}, "geometry": {"type": "Point", "coordinates": [-124.99481290093291, 3.01041553752742]}}, {"type": "Feature", "properties": {"norad_id": 66922, "name": "HULIANWANG DIGUI-112", "group": "last-30-days", "lat": -1.818914833913106, "lon": -120.95657924125997, "alt_km": 887.6933750628441, "timestamp": "2025-12-27T09:28:55.185249+00:00", "meta": {"OBJECT_NAME": "HULIANWANG DIGUI-112", "OBJECT_ID": "2025-285H", "EPOCH": "2025-12-27T05:11:53.071872", "MEAN_MOTION": 14.03084437, "ECCENTRICITY": 0.0005268, "INCLINATION": 50.0124, "RA_OF_ASC_NODE": 58.2424, "ARG_OF_PERICENTER": 355.1139, "MEAN_ANOMALY": 4.9713, "EPHEMERIS_TYPE": 0, "CLASSIFICATION_TYPE": "U", "NORAD_CAT_ID": 66922, "ELEMENT_SET_NO": 999, "REV_AT_EPOCH": 294, "BSTAR": 0.00016957, "MEAN_MOTION_DOT": 1.14e-06, "MEAN_MOTION_DDOT": 0}, "tle": {"line1": "1 66922U 25285H   25361.21658648  .00000114  00000+0  16957-3 0  9990", "line2": "2 66922  50.0124  58.2424 0005268 355.1139   4.9713 14.03084437  2945"}}, "geometry": {"type": "Point", "coordinates": [-120.95657924125997, -1.818914833913106]}}, {"type": "Feature", "properties": {"norad_id": 66923, "name": "HULIANWANG DIGUI-113", "group": "last-30-days", "lat": -7.126106895590455, "lon": -116.47304642244997, "alt_km": 886.595730345809, "timestamp": "2025-12-27T09:28:55.185260+00:00", "meta": {"OBJECT_NAME": "HULIANWANG DIGUI-113", "OBJECT_ID": "2025-285J", "EPOCH": "2025-12-27T05:09:55.497024", "MEAN_MOTION": 14.03204548, "ECCENTRICITY": 0.0003619, "INCLINATION": 50.0104, "RA_OF_ASC_NODE": 58.2357, "ARG_OF_PERICENTER": 348.6644, "MEAN_ANOMALY": 11.4178, "EPHEMERIS_TYPE": 0, "CLASSIFICATION_TYPE": "U", "NORAD_CAT_ID": 66923, "ELEMENT_SET_NO": 999, "REV_AT_EPOCH": 294, "BSTAR": -3.2767e-06, "MEAN_MOTION_DOT": -1.56e-06, "MEAN_MOTION_DDOT": 0}, "tle": {"line1": "1 66923U 25285J   25361.21522566 -.00000156  00000+0 -32767-5 0  9997", "line2": "2 66923  50.0104  58.2357 0003619 348.6644  11.4178 14.03204548  2940"}}, "geometry": {"type": "Point", "coordinates": [-116.47304642244997, -7.126106895590455]}}, {"type": "Feature", "properties": {"norad_id": 66924, "name": "CZ-8A R/B", "group": "last-30-days", "lat": -22.59839904753894, "lon": 33.32208948207533, "alt_km": 877.5022617298646, "timestamp": "2025-12-27T09:28:55.185272+00:00", "meta": {"OBJECT_NAME": "CZ-8A R/B", "OBJECT_ID": "2025-285K", "EPOCH": "2025-12-27T04:35:45.335616", "MEAN_MOTION": 14.3050765, "ECCENTRICITY": 0.0119228, "INCLINATION": 50.0086, "RA_OF_ASC_NODE": 54.638, "ARG_OF_PERICENTER": 157.6833, "MEAN_ANOMALY": 202.9332, "EPHEMERIS_TYPE": 0, "CLASSIFICATION_TYPE": "U", "NORAD_CAT_ID": 66924, "ELEMENT_SET_NO": 999, "REV_AT_EPOCH": 299, "BSTAR": 8.3991e-05, "MEAN_MOTION_DOT": 7.2e-07, "MEAN_MOTION_DDOT": 0}, "tle": {"line1": "1 66924U 25285K   25361.19149694  .00000072  00000+0  83991-4 0  9991", "line2": "2 66924  50.0086  54.6380 0119228 157.6833 202.9332 14.30507650  2992"}}, "geometry": {"type": "Point", "coordinates": [33.32208948207533, -22.59839904753894]}}, {"type": "Feature", "properties": {"norad_id": 66925, "name": "STARLINK-35945", "group": "last-30-days", "lat": -50.311454909596875, "lon": -137.76478089185602, "alt_km": 412.5840139966667, "timestamp": "2025-12-27T09:28:55.185282+00:00", "meta": {"OBJECT_NAME": "STARLINK-35945", "OBJECT_ID": "2025-286A", "EPOCH": "2025-12-27T04:00:01.998720", "MEAN_MOTION": 15.54372597, "ECCENTRICITY": 0.0001177, "INCLINATION": 53.1594, "RA_OF_ASC_NODE": 338.7221, "ARG_OF_PERICENTER": 78.8781, "MEAN_ANOMALY": 336.8623, "EPHEMERIS_TYPE": 0, "CLASSIFICATION_TYPE": "U", "NORAD_CAT_ID": 66925, "ELEMENT_SET_NO": 999, "REV_AT_EPOCH": 430, "BSTAR": -0.034497, "MEAN_MOTION_DOT": -0.02052368, "MEAN_MOTION_DDOT": 0}, "tle": {"line1": "1 66925U 25286A   25361.16668980 -.02052368  00000+0 -34497-1 0  9997", "line2": "2 66925  53.1594 338.7221 0001177  78.8781 336.8623 15.54372597  4304"}}, "geometry": {"type": "Point", "coordinates": [-137.76478089185602, -50.311454909596875]}}, {"type": "Feature", "properties": {"norad_id": 66926, "name": "STARLINK-35942", "group": "last-30-days", "lat": -34.62848221478382, "lon": -171.13812307036483, "alt_km": 417.2429850044018, "timestamp": "2025-12-27T09:28:55.185293+00:00", "meta": {"OBJECT_NAME": "STARLINK-35942", "OBJECT_ID": "2025-286B", "EPOCH": "2025-12-27T04:00:01.998720", "MEAN_MOTION": 15.5234627, "ECCENTRICITY": 0.0001032, "INCLINATION": 53.1597, "RA_OF_ASC_NODE": 338.7767, "ARG_OF_PERICENTER": 103.1707, "MEAN_ANOMALY": 285.3026, "EPHEMERIS_TYPE": 0, "CLASSIFICATION_TYPE": "U", "NORAD_CAT_ID": 66926, "ELEMENT_SET_NO": 999, "REV_AT_EPOCH": 430, "BSTAR": -0.034924, "MEAN_MOTION_DOT": -0.019417, "MEAN_MOTION_DDOT": 0}, "tle": {"line1": "1 66926U 25286B   25361.16668980 -.01941700  00000+0 -34924-1 0  9999", "line2": "2 66926  53.1597 338.7767 0001032 103.1707 285.3026 15.52346270  4305"}}, "geometry": {"type": "Point", "coordinates": [-171.13812307036483, -34.62848221478382]}}, {"type": "Feature", "properties": {"norad_id": 66927, "name": "STARLINK-35943", "group": "last-30-days", "lat": -35.92764034408858, "lon": -169.41745723157968, "alt_km": 417.34529505193404, "timestamp": "2025-12-27T09:28:55.185304+00:00", "meta": {"OBJECT_NAME": "STARLINK-35943", "OBJECT_ID": "2025-286C", "EPOCH": "2025-12-27T04:00:01.998720", "MEAN_MOTION": 15.52348893, "ECCENTRICITY": 0.0001117, "INCLINATION": 53.1597, "RA_OF_ASC_NODE": 338.7729, "ARG_OF_PERICENTER": 104.813, "MEAN_ANOMALY": 285.5757, "EPHEMERIS_TYPE": 0, "CLASSIFICATION_TYPE": "U", "NORAD_CAT_ID": 66927, "ELEMENT_SET_NO": 999, "REV_AT_EPOCH": 430, "BSTAR": -0.034948, "MEAN_MOTION_DOT": -0.01943066, "MEAN_MOTION_DDOT": 0}, "tle": {"line1": "1 66927U 25286C   25361.16668980 -.01943066  00000+0 -34948-1 0  9993", "line2": "2 66927  53.1597 338.7729 0001117 104.8130 285.5757 15.52348893  4302"}}, "geometry": {"type": "Point", "coordinates": [-169.41745723157968, -35.92764034408858]}}, {"type": "Feature", "properties": {"norad_id": 66928, "name": "STARLINK-35944", "group": "last-30-days", "lat": -33.304084049379625, "lon": -172.80725181758754, "alt_km": 417.24347526253314, "timestamp": "2025-12-27T09:28:55.185316+00:00", "meta": {"OBJECT_NAME": "STARLINK-35944", "OBJECT_ID": "2025-286D", "EPOCH": "2025-12-27T04:00:01.998720", "MEAN_MOTION": 15.52340361, "ECCENTRICITY": 0.0001175, "INCLINATION": 53.1596, "RA_OF_ASC_NODE": 338.7804, "ARG_OF_PERICENTER": 98.1716, "MEAN_ANOMALY": 288.382, "EPHEMERIS_TYPE": 0, "CLASSIFICATION_TYPE": "U", "NORAD_CAT_ID": 66928, "ELEMENT_SET_NO": 999, "REV_AT_EPOCH": 430, "BSTAR": -0.034654, "MEAN_MOTION_DOT": -0.01927902, "MEAN_MOTION_DDOT": 0}, "tle": {"line1": "1 66928U 25286D   25361.16668980 -.01927902  00000+0 -34654-1 0  9999", "line2": "2 66928  53.1596 338.7804 0001175  98.1716 288.3820 15.52340361  4309"}}, "geometry": {"type": "Point", "coordinates": [-172.80725181758754, -33.304084049379625]}}, {"type": "Feature", "properties": {"norad_id": 66929, "name": "STARLINK-36169", "group": "last-30-days", "lat": -37.20044436929627, "lon": -167.64144554815704, "alt_km": 417.41149772513654, "timestamp": "2025-12-27T09:28:55.185327+00:00", "meta": {"OBJECT_NAME": "STARLINK-36169", "OBJECT_ID": "2025-286E", "EPOCH": "2025-12-27T04:00:01.998720", "MEAN_MOTION": 15.52346834, "ECCENTRICITY": 0.0001178, "INCLINATION": 53.1598, "RA_OF_ASC_NODE": 338.7688, "ARG_OF_PERICENTER": 109.3849, "MEAN_ANOMALY": 282.9206, "EPHEMERIS_TYPE": 0, "CLASSIFICATION_TYPE": "U", "NORAD_CAT_ID": 66929, "ELEMENT_SET_NO": 999, "REV_AT_EPOCH": 430, "BSTAR": -0.034882, "MEAN_MOTION_DOT": -0.01939692, "MEAN_MOTION_DDOT": 0}, "tle": {"line1": "1 66929U 25286E   25361.16668980 -.01939692  00000+0 -34882-1 0  9992", "line2": "2 66929  53.1598 338.7688 0001178 109.3849 282.9206 15.52346834  4306"}}, "geometry": {"type": "Point", "coordinates": [-167.64144554815704, -37.20044436929627]}}]}